{
  "type": "FeatureCollection",
  "features": [
    {
      "type": "Feature",
      "properties": {
        "norad_id": 33412,
        "name": "COSMO-SKYMED 3",
        "group": "resource",
        "lat": -66.36997026190193,
        "lon": -8.903880467002931,
        "alt_km": 550.828815308917,
        "timestamp": "2025-12-05T04:52:14.978556+00:00",
        "meta_object_name": "COSMO-SKYMED 3",
        "meta_object_id": "2008-054A",
        "meta_epoch": "2025-12-04T18:12:06.753600",
        "meta_mean_motion": 15.05235671,
        "meta_eccentricity": 0.0015568,
        "meta_inclination": 97.846,
        "meta_ra_of_asc_node": 189.0161,
        "meta_arg_of_pericenter": 200.7258,
        "meta_mean_anomaly": 159.3339,
        "meta_ephemeris_type": 0,
        "meta_classification_type": "U",
        "meta_norad_cat_id": 33412,
        "meta_element_set_no": 999,
        "meta_rev_at_epoch": 92767,
        "meta_bstar": 0.00068411,
        "meta_mean_motion_dot": 9.737e-05,
        "meta_mean_motion_ddot": 0,
        "tle_line1": "1 33412U 08054A   25338.75841150  .00009737  00000+0  68411-3 0  9990",
        "tle_line2": "2 33412  97.8460 189.0161 0015568 200.7258 159.3339 15.05235671927673"
      },
      "geometry": {
        "type": "Point",
        "coordinates": [
          -8.903880467002931,
          -66.36997026190193
        ]
      }
    },
    {
      "type": "Feature",
      "properties": {
        "norad_id": 33446,
        "name": "YAOGAN-4",
        "group": "resource",
        "lat": 57.00810232359845,
        "lon": 101.75428185757971,
        "alt_km": 622.402323533729,
        "timestamp": "2025-12-05T04:52:14.978565+00:00",
        "meta_object_name": "YAOGAN-4",
        "meta_object_id": "2008-061A",
        "meta_epoch": "2025-12-04T16:59:04.308864",
        "meta_mean_motion": 14.82643182,
        "meta_eccentricity": 0.0014289,
        "meta_inclination": 97.9172,
        "meta_ra_of_asc_node": 268.8863,
        "meta_arg_of_pericenter": 350.1762,
        "meta_mean_anomaly": 9.917,
        "meta_ephemeris_type": 0,
        "meta_classification_type": "U",
        "meta_norad_cat_id": 33446,
        "meta_element_set_no": 999,
        "meta_rev_at_epoch": 91684,
        "meta_bstar": 0.00041256,
        "meta_mean_motion_dot": 3.277e-05,
        "meta_mean_motion_ddot": 0,
        "tle_line1": "1 33446U 08061A   25338.70768876  .00003277  00000+0  41256-3 0  9994",
        "tle_line2": "2 33446  97.9172 268.8863 0014289 350.1762   9.9170 14.82643182916849"
      },
      "geometry": {
        "type": "Point",
        "coordinates": [
          101.75428185757971,
          57.00810232359845
        ]
      }
    },
    {
      "type": "Feature",
      "properties": {
        "norad_id": 33492,
        "name": "GOSAT (IBUKI)",
        "group": "resource",
        "lat": -43.07789348326424,
        "lon": -99.71951502697488,
        "alt_km": 676.0845269162228,
        "timestamp": "2025-12-05T04:52:14.978575+00:00",
        "meta_object_name": "GOSAT (IBUKI)",
        "meta_object_id": "2009-002A",
        "meta_epoch": "2025-12-04T13:07:41.435040",
        "meta_mean_motion": 14.67546506,
        "meta_eccentricity": 9.34e-05,
        "meta_inclination": 98.077,
        "meta_ra_of_asc_node": 87.2643,
        "meta_arg_of_pericenter": 82.6691,
        "meta_mean_anomaly": 277.462,
        "meta_ephemeris_type": 0,
        "meta_classification_type": "U",
        "meta_norad_cat_id": 33492,
        "meta_element_set_no": 999,
        "meta_rev_at_epoch": 90291,
        "meta_bstar": 0.00032095,
        "meta_mean_motion_dot": 1.773e-05,
        "meta_mean_motion_ddot": 0,
        "tle_line1": "1 33492U 09002A   25338.54700735  .00001773  00000+0  32095-3 0  9993",
        "tle_line2": "2 33492  98.0770  87.2643 0000934  82.6691 277.4620 14.67546506902915"
      },
      "geometry": {
        "type": "Point",
        "coordinates": [
          -99.71951502697488,
          -43.07789348326424
        ]
      }
    },
    {
      "type": "Feature",
      "properties": {
        "norad_id": 35681,
        "name": "DEIMOS-1",
        "group": "resource",
        "lat": 76.50418017289518,
        "lon": -5.4534238327056315,
        "alt_km": 636.2688867391289,
        "timestamp": "2025-12-05T04:52:14.978586+00:00",
        "meta_object_name": "DEIMOS-1",
        "meta_object_id": "2009-041A",
        "meta_epoch": "2025-12-04T17:01:01.499232",
        "meta_mean_motion": 14.7493367,
        "meta_eccentricity": 0.0002693,
        "meta_inclination": 97.7146,
        "meta_ra_of_asc_node": 139.6867,
        "meta_arg_of_pericenter": 94.7346,
        "meta_mean_anomaly": 265.4171,
        "meta_ephemeris_type": 0,
        "meta_classification_type": "U",
        "meta_norad_cat_id": 35681,
        "meta_element_set_no": 999,
        "meta_rev_at_epoch": 87821,
        "meta_bstar": 0.0002052,
        "meta_mean_motion_dot": 1.331e-05,
        "meta_mean_motion_ddot": 0,
        "tle_line1": "1 35681U 09041A   25338.70904513  .00001331  00000+0  20520-3 0  9996",
        "tle_line2": "2 35681  97.7146 139.6867 0002693  94.7346 265.4171 14.74933670878218"
      },
      "geometry": {
        "type": "Point",
        "coordinates": [
          -5.4534238327056315,
          76.50418017289518
        ]
      }
    },
    {
      "type": "Feature",
      "properties": {
        "norad_id": 35682,
        "name": "DUBAISAT-1",
        "group": "resource",
        "lat": 44.90733261199095,
        "lon": 101.95746101401119,
        "alt_km": 639.6821879731042,
        "timestamp": "2025-12-05T04:52:14.978596+00:00",
        "meta_object_name": "DUBAISAT-1",
        "meta_object_id": "2009-041B",
        "meta_epoch": "2025-12-04T09:07:21.717408",
        "meta_mean_motion": 14.74567058,
        "meta_eccentricity": 0.0010119,
        "meta_inclination": 97.9787,
        "meta_ra_of_asc_node": 109.1835,
        "meta_arg_of_pericenter": 343.1086,
        "meta_mean_anomaly": 16.9784,
        "meta_ephemeris_type": 0,
        "meta_classification_type": "U",
        "meta_norad_cat_id": 35682,
        "meta_element_set_no": 999,
        "meta_rev_at_epoch": 87638,
        "meta_bstar": 0.00037197,
        "meta_mean_motion_dot": 2.429e-05,
        "meta_mean_motion_ddot": 0,
        "tle_line1": "1 35682U 09041B   25338.38011247  .00002429  00000+0  37197-3 0  9991",
        "tle_line2": "2 35682  97.9787 109.1835 0010119 343.1086  16.9784 14.74567058876381"
      },
      "geometry": {
        "type": "Point",
        "coordinates": [
          101.95746101401119,
          44.90733261199095
        ]
      }
    },
    {
      "type": "Feature",
      "properties": {
        "norad_id": 35931,
        "name": "OCEANSAT-2",
        "group": "resource",
        "lat": 80.82742867052376,
        "lon": -135.85856430175664,
        "alt_km": 877.1859397941726,
        "timestamp": "2025-12-05T04:52:14.978605+00:00",
        "meta_object_name": "OCEANSAT-2",
        "meta_object_id": "2009-051A",
        "meta_epoch": "2025-12-04T18:07:48.512640",
        "meta_mean_motion": 13.99626492,
        "meta_eccentricity": 0.0016533,
        "meta_inclination": 98.2229,
        "meta_ra_of_asc_node": 340.1657,
        "meta_arg_of_pericenter": 65.8249,
        "meta_mean_anomaly": 294.4644,
        "meta_ephemeris_type": 0,
        "meta_classification_type": "U",
        "meta_norad_cat_id": 35931,
        "meta_element_set_no": 999,
        "meta_rev_at_epoch": 85213,
        "meta_bstar": -6.3473e-05,
        "meta_mean_motion_dot": -1.3e-06,
        "meta_mean_motion_ddot": 0,
        "tle_line1": "1 35931U 09051A   25338.75542260 -.00000130  00000+0 -63473-4 0  9990",
        "tle_line2": "2 35931  98.2229 340.1657 0016533  65.8249 294.4644 13.99626492852136"
      },
      "geometry": {
        "type": "Point",
        "coordinates": [
          -135.85856430175664,
          80.82742867052376
        ]
      }
    },
    {
      "type": "Feature",
      "properties": {
        "norad_id": 35946,
        "name": "WORLDVIEW-2 (WV-2)",
        "group": "resource",
        "lat": -79.92050550438208,
        "lon": 173.3588601144651,
        "alt_km": 777.4944551478411,
        "timestamp": "2025-12-05T04:52:14.978615+00:00",
        "meta_object_name": "WORLDVIEW-2 (WV-2)",
        "meta_object_id": "2009-055A",
        "meta_epoch": "2025-12-04T15:57:06.520320",
        "meta_mean_motion": 14.37647123,
        "meta_eccentricity": 0.0005431,
        "meta_inclination": 98.477,
        "meta_ra_of_asc_node": 49.8618,
        "meta_arg_of_pericenter": 86.3021,
        "meta_mean_anomaly": 273.8787,
        "meta_ephemeris_type": 0,
        "meta_classification_type": "U",
        "meta_norad_cat_id": 35946,
        "meta_element_set_no": 999,
        "meta_rev_at_epoch": 84769,
        "meta_bstar": 0.00014761,
        "meta_mean_motion_dot": 4e-06,
        "meta_mean_motion_ddot": 0,
        "tle_line1": "1 35946U 09055A   25338.66465880  .00000400  00000+0  14761-3 0  9995",
        "tle_line2": "2 35946  98.4770  49.8618 0005431  86.3021 273.8787 14.37647123847697"
      },
      "geometry": {
        "type": "Point",
        "coordinates": [
          173.3588601144651,
          -79.92050550438208
        ]
      }
    }
  ]
}